{"fetched_at":"2026-07-13T07:47:59.900Z","source":"https://celestrak.org/NORAD/elements/gp.php?GROUP=spire&FORMAT=JSON","constellation":"spire","records":[{"OBJECT_NAME":"LEMUR-2-VALHALLA","OBJECT_ID":"2024-022B","EPOCH":"2026-07-12T13:05:03.405984","CLASSIFICATION_TYPE":"U","MEAN_MOTION":15.40435155,"ECCENTRICITY":0.00094953,"INCLINATION":97.4084,"RA_OF_ASC_NODE":43.8528,"ARG_OF_PERICENTER":32.9596,"MEAN_ANOMALY":327.2241,"EPHEMERIS_TYPE":0,"NORAD_CAT_ID":58900,"ELEMENT_SET_NO":999,"REV_AT_EPOCH":13617,"BSTAR":0.00026232161,"MEAN_MOTION_DOT":0.00010549,"MEAN_MOTION_DDOT":0},{"OBJECT_NAME":"LEMUR-2-CAEL","OBJECT_ID":"2024-022E","EPOCH":"2026-07-12T12:47:42.015552","CLASSIFICATION_TYPE":"U","MEAN_MOTION":15.4179644,"ECCENTRICITY":0.00073905,"INCLINATION":97.4069,"RA_OF_ASC_NODE":44.8221,"ARG_OF_PERICENTER":18.8003,"MEAN_ANOMALY":341.3516,"EPHEMERIS_TYPE":0,"NORAD_CAT_ID":58903,"ELEMENT_SET_NO":999,"REV_AT_EPOCH":13624,"BSTAR":0.00026918196,"MEAN_MOTION_DOT":0.00011322,"MEAN_MOTION_DDOT":0},{"OBJECT_NAME":"LEMUR-2-JOHNNYTRUONG","OBJECT_ID":"2024-043BA","EPOCH":"2026-07-12T20:21:35.515008","CLASSIFICATION_TYPE":"U","MEAN_MOTION":15.62433414,"ECCENTRICITY":0.0004186,"INCLINATION":97.5384,"RA_OF_ASC_NODE":347.1811,"ARG_OF_PERICENTER":100.2015,"MEAN_ANOMALY":259.9715,"EPHEMERIS_TYPE":0,"NORAD_CAT_ID":59146,"ELEMENT_SET_NO":999,"REV_AT_EPOCH":13204,"BSTAR":0.00040312,"MEAN_MOTION_DOT":0.00035739,"MEAN_MOTION_DDOT":0},{"OBJECT_NAME":"LEMUR-2-TOMATOKECHUP","OBJECT_ID":"2024-149D","EPOCH":"2026-07-12T18:28:56.034336","CLASSIFICATION_TYPE":"U","MEAN_MOTION":15.3655251,"ECCENTRICITY":0.0003218,"INCLINATION":97.3802,"RA_OF_ASC_NODE":275.8895,"ARG_OF_PERICENTER":127.079,"MEAN_ANOMALY":233.0748,"EPHEMERIS_TYPE":0,"NORAD_CAT_ID":60471,"ELEMENT_SET_NO":999,"REV_AT_EPOCH":10609,"BSTAR":0.00021932,"MEAN_MOTION_DOT":0.00007744,"MEAN_MOTION_DDOT":0},{"OBJECT_NAME":"LEMUR-2-STELLA","OBJECT_ID":"2024-149BT","EPOCH":"2026-07-12T18:11:32.160768","CLASSIFICATION_TYPE":"U","MEAN_MOTION":15.12343479,"ECCENTRICITY":0.0001212,"INCLINATION":97.6742,"RA_OF_ASC_NODE":276.3329,"ARG_OF_PERICENTER":111.1523,"MEAN_ANOMALY":248.9837,"EPHEMERIS_TYPE":0,"NORAD_CAT_ID":60533,"ELEMENT_SET_NO":999,"REV_AT_EPOCH":10436,"BSTAR":0.0004346,"MEAN_MOTION_DOT":0.00007469,"MEAN_MOTION_DDOT":0},{"OBJECT_NAME":"LEMUR-2-MARHISYAM","OBJECT_ID":"2024-149BW","EPOCH":"2026-07-12T17:57:04.415328","CLASSIFICATION_TYPE":"U","MEAN_MOTION":15.11751485,"ECCENTRICITY":0.0002737,"INCLINATION":97.6886,"RA_OF_ASC_NODE":276.7972,"ARG_OF_PERICENTER":73.8145,"MEAN_ANOMALY":286.3386,"EPHEMERIS_TYPE":0,"NORAD_CAT_ID":60536,"ELEMENT_SET_NO":999,"REV_AT_EPOCH":10434,"BSTAR":0.00040079,"MEAN_MOTION_DOT":0.0000677,"MEAN_MOTION_DDOT":0},{"OBJECT_NAME":"LEMUR-2-AHMED-ASRAR","OBJECT_ID":"2024-149DN","EPOCH":"2026-07-12T18:09:59.931360","CLASSIFICATION_TYPE":"U","MEAN_MOTION":15.13277524,"ECCENTRICITY":0.0000936,"INCLINATION":97.7013,"RA_OF_ASC_NODE":278.9991,"ARG_OF_PERICENTER":206.0418,"MEAN_ANOMALY":154.0766,"EPHEMERIS_TYPE":0,"NORAD_CAT_ID":60576,"ELEMENT_SET_NO":999,"REV_AT_EPOCH":10443,"BSTAR":0.00043625,"MEAN_MOTION_DOT":0.00007696,"MEAN_MOTION_DDOT":0},{"OBJECT_NAME":"LEMUR-2-LLOYD","OBJECT_ID":"2024-149DP","EPOCH":"2026-07-12T18:18:09.269856","CLASSIFICATION_TYPE":"U","MEAN_MOTION":15.09725629,"ECCENTRICITY":0.0004788,"INCLINATION":97.6753,"RA_OF_ASC_NODE":274.912,"ARG_OF_PERICENTER":77.368,"MEAN_ANOMALY":282.8084,"EPHEMERIS_TYPE":0,"NORAD_CAT_ID":60577,"ELEMENT_SET_NO":999,"REV_AT_EPOCH":10425,"BSTAR":0.00043716,"MEAN_MOTION_DOT":0.00006988,"MEAN_MOTION_DDOT":0},{"OBJECT_NAME":"LEMUR-2-SQUIRRELCOMM","OBJECT_ID":"2024-149DQ","EPOCH":"2026-07-12T17:56:25.098144","CLASSIFICATION_TYPE":"U","MEAN_MOTION":15.07434376,"ECCENTRICITY":0.000421,"INCLINATION":97.6717,"RA_OF_ASC_NODE":274.5815,"ARG_OF_PERICENTER":339.5368,"MEAN_ANOMALY":20.569,"EPHEMERIS_TYPE":0,"NORAD_CAT_ID":60578,"ELEMENT_SET_NO":999,"REV_AT_EPOCH":10425,"BSTAR":0.00022806,"MEAN_MOTION_DOT":0.00003392,"MEAN_MOTION_DDOT":0},{"OBJECT_NAME":"LEMUR-2-SIERRINI","OBJECT_ID":"2024-149DR","EPOCH":"2026-07-12T18:38:03.346368","CLASSIFICATION_TYPE":"U","MEAN_MOTION":15.11482474,"ECCENTRICITY":0.0006417,"INCLINATION":97.6846,"RA_OF_ASC_NODE":276.4893,"ARG_OF_PERICENTER":96.6845,"MEAN_ANOMALY":263.5115,"EPHEMERIS_TYPE":0,"NORAD_CAT_ID":60579,"ELEMENT_SET_NO":999,"REV_AT_EPOCH":10432,"BSTAR":0.00049104,"MEAN_MOTION_DOT":0.00008252,"MEAN_MOTION_DDOT":0},{"OBJECT_NAME":"LEMUR-2-WILSON","OBJECT_ID":"2025-009CP","EPOCH":"2026-07-12T19:01:34.920192","CLASSIFICATION_TYPE":"U","MEAN_MOTION":14.95272934,"ECCENTRICITY":0.0002205,"INCLINATION":97.7022,"RA_OF_ASC_NODE":271.8086,"ARG_OF_PERICENTER":338.0585,"MEAN_ANOMALY":22.0541,"EPHEMERIS_TYPE":0,"NORAD_CAT_ID":62694,"ELEMENT_SET_NO":999,"REV_AT_EPOCH":8118,"BSTAR":0.000080295,"MEAN_MOTION_DOT":0.00000827,"MEAN_MOTION_DDOT":0},{"OBJECT_NAME":"LEMUR-2-STAR-FOX","OBJECT_ID":"2025-009CR","EPOCH":"2026-07-12T19:06:54.480960","CLASSIFICATION_TYPE":"U","MEAN_MOTION":15.02825375,"ECCENTRICITY":0.0002504,"INCLINATION":97.6917,"RA_OF_ASC_NODE":275.2217,"ARG_OF_PERICENTER":52.5903,"MEAN_ANOMALY":307.5549,"EPHEMERIS_TYPE":0,"NORAD_CAT_ID":62696,"ELEMENT_SET_NO":999,"REV_AT_EPOCH":8140,"BSTAR":0.00030473,"MEAN_MOTION_DOT":0.00004021,"MEAN_MOTION_DDOT":0},{"OBJECT_NAME":"LEMUR-2-ARIANNA","OBJECT_ID":"2025-009CU","EPOCH":"2026-07-12T19:04:42.170592","CLASSIFICATION_TYPE":"U","MEAN_MOTION":15.02826231,"ECCENTRICITY":0.0002828,"INCLINATION":97.6856,"RA_OF_ASC_NODE":274.9744,"ARG_OF_PERICENTER":57.8921,"MEAN_ANOMALY":302.2579,"EPHEMERIS_TYPE":0,"NORAD_CAT_ID":62699,"ELEMENT_SET_NO":999,"REV_AT_EPOCH":8140,"BSTAR":0.00031771,"MEAN_MOTION_DOT":0.00004195,"MEAN_MOTION_DDOT":0},{"OBJECT_NAME":"LEMUR-2-ALISIA","OBJECT_ID":"2025-009DB","EPOCH":"2026-07-12T18:25:40.205280","CLASSIFICATION_TYPE":"U","MEAN_MOTION":15.03154652,"ECCENTRICITY":0.0003987,"INCLINATION":97.6971,"RA_OF_ASC_NODE":275.7673,"ARG_OF_PERICENTER":136.3762,"MEAN_ANOMALY":223.7778,"EPHEMERIS_TYPE":0,"NORAD_CAT_ID":62706,"ELEMENT_SET_NO":999,"REV_AT_EPOCH":10400,"BSTAR":0.00040766,"MEAN_MOTION_DOT":0.00005448,"MEAN_MOTION_DDOT":0},{"OBJECT_NAME":"LEMUR-2-ROUNDTRIPPER","OBJECT_ID":"2025-009DG","EPOCH":"2026-07-12T04:13:28.443360","CLASSIFICATION_TYPE":"U","MEAN_MOTION":15.04200239,"ECCENTRICITY":0.00043759,"INCLINATION":97.7248,"RA_OF_ASC_NODE":275.823,"ARG_OF_PERICENTER":70.1877,"MEAN_ANOMALY":289.982,"EPHEMERIS_TYPE":0,"NORAD_CAT_ID":62711,"ELEMENT_SET_NO":999,"REV_AT_EPOCH":8138,"BSTAR":0.0003858306,"MEAN_MOTION_DOT":0.00005299,"MEAN_MOTION_DDOT":0},{"OBJECT_NAME":"LEMUR-2-MYNAMEISJEFF","OBJECT_ID":"2025-009DH","EPOCH":"2026-07-12T18:33:23.874336","CLASSIFICATION_TYPE":"U","MEAN_MOTION":15.04200329,"ECCENTRICITY":0.0003873,"INCLINATION":97.7301,"RA_OF_ASC_NODE":276.8164,"ARG_OF_PERICENTER":102.3756,"MEAN_ANOMALY":257.7903,"EPHEMERIS_TYPE":0,"NORAD_CAT_ID":62712,"ELEMENT_SET_NO":999,"REV_AT_EPOCH":8147,"BSTAR":0.00042913,"MEAN_MOTION_DOT":0.00005901,"MEAN_MOTION_DDOT":0}]}
